NORAD_CAT_ID,OBJECT_NAME,OBJECT_TYPE,EPOCH,MEAN_MOTION,ECCENTRICITY,INCLINATION,RA_OF_ASC_NODE,ARG_OF_PERICENTER,MEAN_ANOMALY,BSTAR,MEAN_MOTION_DOT,MEAN_MOTION_DDOT,TLE_LINE0,TLE_LINE1,TLE_LINE2,SEMIMAJOR_AXIS,PERIOD,APOGEE,PERIGEE,DECAYED
52857.0,STARLINK-4199,PAYLOAD,2023-03-12 15:41:18,15.08840891,0.0001313,53.2164,250.9463,110.9991,249.1142,0.00019926,2.885e-05,0.0,0 STARLINK-4199,1 52857U 22062AD  23071.65368790  .00002885  00000-0  19926-3 0  9999,2 52857  53.2164 250.9463 0001313 110.9991 249.1142 15.08840891 41403,6917.878,95.437,540.651,538.834,0.0
52857.0,STARLINK-4199,PAYLOAD,2023-03-13 12:21:19,15.08835965,0.0001139,53.2172,247.081,104.2134,255.8984,-5.3403e-05,-1.138e-05,0.0,0 STARLINK-4199,1 52857U 22062AD  23072.51480955 -.00001138  00000-0 -53403-4 0  9994,2 52857  53.2172 247.0810 0001139 104.2134 255.8984 15.08835965 41040,6917.893,95.438,540.546,538.97,0.0
52857.0,STARLINK-4199,PAYLOAD,2023-03-13 20:18:15,15.08838481,0.0001208,53.2169,245.5946,104.0196,256.0931,3.5964e-05,2.85e-06,0.0,0 STARLINK-4199,1 52857U 22062AD  23072.84600949  .00000285  00000-0  35964-4 0  9999,2 52857  53.2169 245.5946 0001208 104.0196 256.0931 15.08838481 41582,6917.885,95.438,540.586,538.914,0.0
52857.0,STARLINK-4199,PAYLOAD,2023-03-14 12:12:06,15.08844604,0.0001099,53.2162,242.6213,104.0526,256.0588,0.00023016,3.378e-05,0.0,0 STARLINK-4199,1 52857U 22062AD  23073.50840940  .00003378  00000-0  23016-3 0  9990,2 52857  53.2162 242.6213 0001099 104.0526 256.0588 15.08844604 41194,6917.866,95.437,540.492,538.971,0.0
52857.0,STARLINK-4199,PAYLOAD,2023-03-14 20:09:01,15.08867701,0.0001193,53.217,241.1334,108.2048,251.9075,0.0006142,9.508e-05,0.0,0 STARLINK-4199,1 52857U 22062AD  23073.83959791  .00009508  00000-0  61420-3 0  9993,2 52857  53.2170 241.1334 0001193 108.2048 251.9075 15.08867701 41739,6917.796,95.436,540.486,538.835,0.0
52857.0,STARLINK-4199,PAYLOAD,2023-03-15 04:05:57,15.08847182,0.0001076,53.2167,239.6481,102.5132,257.5981,0.00024022,3.538e-05,0.0,0 STARLINK-4199,1 52857U 22062AD  23074.17080278  .00003538  00000-0  24022-3 0  9990,2 52857  53.2167 239.6481 0001076 102.5132 257.5981 15.08847182 41785,6917.858,95.437,540.468,538.979,0.0
52857.0,STARLINK-4199,PAYLOAD,2023-03-15 05:41:20,15.08850817,0.0001509,53.2137,239.3503,90.7508,269.3657,0.00023496,3.454e-05,0.0,0 STARLINK-4199,1 52857U 22062AD  23074.23704309  .00003454  00000-0  23496-3 0  9996,2 52857  53.2137 239.3503 0001509  90.7508 269.3657 15.08850817 41308,6917.847,95.437,540.756,538.668,0.0
52857.0,STARLINK-4199,PAYLOAD,2023-03-15 19:59:49,15.08835998,0.0001463,53.2138,236.6735,94.0227,266.0933,-0.00012894,-2.339e-05,0.0,0 STARLINK-4199,1 52857U 22062AD  23074.83320667 -.00002339  00000-0 -12894-3 0  9996,2 52857  53.2138 236.6735 0001463  94.0227 266.0933 15.08835998 41887,6917.893,95.438,540.77,538.746,0.0
52857.0,STARLINK-4199,PAYLOAD,2023-03-16 11:53:40,15.08839095,0.0001298,53.2157,233.6999,95.1706,264.9434,-9.3251e-05,-1.772e-05,0.0,0 STARLINK-4199,1 52857U 22062AD  23075.49560921 -.00001772  00000-0 -93251-4 0  9995,2 52857  53.2157 233.6999 0001298  95.1706 264.9434 15.08839095 41499,6917.883,95.438,540.646,538.85,0.0
52857.0,STARLINK-4199,PAYLOAD,2023-03-16 19:50:36,15.08846614,0.0001304,53.2159,232.213,95.0183,265.0958,0.00017662,2.525e-05,0.0,0 STARLINK-4199,1 52857U 22062AD  23075.82680720  .00002525  00000-0  17662-3 0  9998,2 52857  53.2159 232.2130 0001304  95.0183 265.0958 15.08846614 41543,6917.86,95.437,540.627,538.823,0.0
52857.0,STARLINK-4199,PAYLOAD,2023-03-17 03:47:32,15.08838079,9.95e-05,53.216,230.7275,85.5117,274.5988,5.8969e-05,6.51e-06,0.0,0 STARLINK-4199,1 52857U 22062AD  23076.15801173  .00000651  00000-0  58969-4 0  9996,2 52857  53.2160 230.7275 0000995  85.5117 274.5988 15.08838079 42088,6917.886,95.438,540.44,539.063,0.0
52857.0,STARLINK-4199,PAYLOAD,2023-03-17 10:09:05,15.08831302,0.0001945,53.2142,229.5391,76.6253,283.4956,0.00012095,1.637e-05,0.0,0 STARLINK-4199,1 52857U 22062AD  23076.42298019  .00001637  00000-0  12095-3 0  9999,2 52857  53.2142 229.5391 0001945  76.6253 283.4956 15.08831302 41637,6917.907,95.438,541.118,538.426,0.0
52857.0,STARLINK-4199,PAYLOAD,2023-03-17 13:19:52,15.08827668,0.0001864,53.2151,228.9435,79.8194,280.3008,0.00012883,1.762e-05,0.0,0 STARLINK-4199,1 52857U 22062AD  23076.55546351  .00001762  00000-0  12883-3 0  9992,2 52857  53.2151 228.9435 0001864  79.8194 280.3008 15.08827668 42149,6917.918,95.438,541.073,538.494,0.0
52857.0,STARLINK-4199,PAYLOAD,2023-03-17 16:30:38,15.08834261,0.0001906,53.2133,228.3482,81.3809,278.7399,0.00018416,2.644e-05,0.0,0 STARLINK-4199,1 52857U 22062AD  23076.68794042  .00002644  00000-0  18416-3 0  9996,2 52857  53.2133 228.3482 0001906  81.3809 278.7399 15.08834261 41671,6917.898,95.438,541.081,538.444,0.0
52857.0,STARLINK-4199,PAYLOAD,2023-03-18 03:38:19,15.08841046,0.0001505,53.2161,226.2661,83.8875,276.2289,0.00029359,4.388e-05,0.0,0 STARLINK-4199,1 52857U 22062AD  23077.15161939  .00004388  00000-0  29359-3 0  9997,2 52857  53.2161 226.2661 0001505  83.8875 276.2289 15.08841046 42236,6917.877,95.437,540.783,538.701,0.0
52857.0,STARLINK-4199,PAYLOAD,2023-03-18 16:21:24,15.08859975,0.0001456,53.2158,223.8881,75.8485,284.2669,0.00081931,0.00012782,0.0,0 STARLINK-4199,1 52857U 22062AD  23077.68153513  .00012782  00000-0  81931-3 0  9995,2 52857  53.2158 223.8881 0001456  75.8485 284.2669 15.08859975 42312,6917.819,95.436,540.692,538.677,0.0
52857.0,STARLINK-4199,PAYLOAD,2023-03-19 05:04:29,15.08855165,0.0001452,53.2155,221.5093,65.6868,294.4276,0.00034598,5.225e-05,0.0,0 STARLINK-4199,1 52857U 22062AD  23078.21145217  .00005225  00000-0  34598-3 0  9998,2 52857  53.2155 221.5093 0001452  65.6868 294.4276 15.08855165 42399,6917.834,95.437,540.704,538.695,0.0
52857.0,STARLINK-4199,PAYLOAD,2023-03-19 13:01:25,15.08851544,0.0001474,53.2162,220.0228,65.6568,294.4577,0.00031648,4.754e-05,0.0,0 STARLINK-4199,1 52857U 22062AD  23078.54265245  .00004754  00000-0  31648-3 0  9997,2 52857  53.2162 220.0228 0001474  65.6568 294.4577 15.08851544 41954,6917.845,95.437,540.73,538.69,0.0
52857.0,STARLINK-4199,PAYLOAD,2023-03-19 16:12:11,15.08856438,0.0001326,53.2163,219.428,74.4928,285.621,0.00055194,8.511e-05,0.0,0 STARLINK-4199,1 52857U 22062AD  23078.67512943  .00008511  00000-0  55194-3 0  9998,2 52857  53.2163 219.4280 0001326  74.4928 285.6210 15.08856438 41974,6917.83,95.437,540.612,538.778,0.0
52857.0,STARLINK-4199,PAYLOAD,2023-03-20 01:44:30,15.08849123,0.0001354,53.2165,217.6439,73.7208,286.3933,0.00052902,8.144e-05,0.0,0 STARLINK-4199,1 52857U 22062AD  23079.07257071  .00008144  00000-0  52902-3 0  9997,2 52857  53.2165 217.6439 0001354  73.7208 286.3933 15.08849123 42521,6917.853,95.437,540.654,538.781,0.0
52857.0,STARLINK-4199,PAYLOAD,2023-03-20 12:52:12,15.08848584,0.0001619,53.2169,215.563,84.777,275.3407,0.00059775,9.24e-05,0.0,0 STARLINK-4199,1 52857U 22062AD  23079.53625209  .00009240  00000-0  59775-3 0  9993,2 52857  53.2169 215.5630 0001619  84.7770 275.3407 15.08848584 42103,6917.854,95.437,540.839,538.599,0.0
52857.0,STARLINK-4199,PAYLOAD,2023-03-20 16:02:58,15.08850248,0.0001325,53.2169,214.9692,79.9135,280.2007,0.00044556,6.812e-05,0.0,0 STARLINK-4199,1 52857U 22062AD  23079.66873006  .00006812  00000-0  44556-3 0  9990,2 52857  53.2169 214.9692 0001325  79.9135 280.2007 15.08850248 42616,6917.849,95.437,540.631,538.797,0.0
52857.0,STARLINK-4199,PAYLOAD,2023-03-21 12:42:59,15.08839434,0.0001204,53.2164,211.104,91.7015,268.4115,-1.9782e-05,-6.03e-06,0.0,0 STARLINK-4199,1 52857U 22062AD  23080.52985011 -.00000603  00000-0 -19782-4 0  9995,2 52857  53.2164 211.1040 0001204  91.7015 268.4115 15.08839434 42748,6917.882,95.438,540.58,538.914,0.0
52857.0,STARLINK-4199,PAYLOAD,2023-03-22 14:09:08,15.08844703,0.0001249,53.2161,206.3449,135.643,224.4662,6.2942e-05,7.14e-06,0.0,0 STARLINK-4199,1 52857U 22062AD  23081.58968540  .00000714  00000-0  62942-4 0  9997,2 52857  53.2161 206.3449 0001249 135.6430 224.4662 15.08844703 42904,6917.866,95.437,540.595,538.867,0.0
52857.0,STARLINK-4199,PAYLOAD,2023-03-22 15:44:31,15.08849973,0.0001041,53.2173,206.0471,103.862,256.2488,0.00019605,2.835e-05,0.0,0 STARLINK-4199,1 52857U 22062AD  23081.65592524  .00002835  00000-0  19605-3 0  9993,2 52857  53.2173 206.0471 0001041 103.8620 256.2488 15.08849973 42427,6917.85,95.437,540.435,538.995,0.0
52857.0,STARLINK-4199,PAYLOAD,2023-03-23 12:24:33,15.0883288,7.63e-05,53.2168,202.1839,98.2091,261.8988,-2.3193e-07,-2.91e-06,0.0,0 STARLINK-4199,1 52857U 22062AD  23082.51705370 -.00000291  00000-0 -23193-6 0  9990,2 52857  53.2168 202.1839 0000763  98.2091 261.8988 15.08832880 43040,6917.902,95.438,540.295,539.239,0.0
52857.0,STARLINK-4199,PAYLOAD,2023-03-23 13:59:56,15.08841744,8.89e-05,53.216,201.8871,92.8233,267.2861,0.00017239,2.457e-05,0.0,0 STARLINK-4199,1 52857U 22062AD  23082.58329025  .00002457  00000-0  17239-3 0  9991,2 52857  53.2160 201.8871 0000889  92.8233 267.2861 15.08841744 42566,6917.875,95.437,540.355,539.125,0.0
52857.0,STARLINK-4199,PAYLOAD,2023-03-24 01:07:37,15.08858303,8.82e-05,53.2163,199.8063,95.9119,264.1974,0.00050866,7.821e-05,0.0,0 STARLINK-4199,1 52857U 22062AD  23083.04696336  .00007821  00000-0  50866-3 0  9998,2 52857  53.2163 199.8063 0000882  95.9119 264.1974 15.08858303 43121,6917.824,95.436,540.3,539.079,0.0
52857.0,STARLINK-4199,PAYLOAD,2023-03-24 07:29:09,15.08896723,9e-05,53.2161,198.6164,87.8689,272.2406,0.0015875,0.00025107,0.0,0 STARLINK-4199,1 52857U 22062AD  23083.31191600  .00025107  00000-0  15875-2 0  9999,2 52857  53.2161 198.6164 0000900  87.8689 272.2406 15.08896723 43163,6917.707,95.434,540.195,538.949,0.0
52857.0,STARLINK-4199,PAYLOAD,2023-03-24 13:50:41,15.0890593,0.0001036,53.2165,197.429,73.5952,286.5154,0.0022568,0.00035877,0.0,0 STARLINK-4199,1 52857U 22062AD  23083.57687016  .00035877  00000-0  22568-2 0  9990,2 52857  53.2165 197.4290 0001036  73.5952 286.5154 15.08905930 42719,6917.679,95.433,540.261,538.827,0.0
